{"fetched_at":"2026-05-30T13:25:20Z","count":937,"tles":[{"name":"SAUDISAT 5B","line1":"1 43833U 18102C   26150.17716412  .00007032  00000+0  25891-3 0  9995","line2":"2 43833  97.3187 215.1435 0010121 190.8194 169.2829 15.28107037413049","category":"Other"},{"name":"FORGESTAR-1","line1":"1 64546U 25135U   26149.78760494  .00009766  00000+0  40784-3 0  9991","line2":"2 64546  97.4673 265.6446 0000955 133.8203 226.3113 15.23846117 52109","category":"Other"},{"name":"HADES-SA (SPINNYONE)","line1":"1 68446U 26067AG  26149.83956923  .00025698  00000+0  12495-2 0  9998","line2":"2 68446  97.4401 108.4219 0008870 127.8390 232.3649 15.18362207  9141","category":"Other"},{"name":"2023-069A","line1":"1 56731U 23069A   26149.79982329  .00011894  00000+0  28623-3 0  9999","line2":"2 56731  40.9958 287.1534 0006569 164.4553 195.6474 15.41071659170219","category":"Other"},{"name":"BNU-1 (JINGSHI 1)","line1":"1 44529U 19059B   26150.19111061  .00000445  00000+0  13119-3 0  9992","line2":"2 44529  98.6036 278.9447 0014364  70.1973 290.0767 14.48372100354388","category":"Other"},{"name":"GONETS-M 12","line1":"1 40553U 15020B   26150.19208957  .00000076  00000+0  47728-3 0  9993","line2":"2 40553  82.4923  43.3234 0016058  29.0304 331.1665 12.42890609506494","category":"Other"},{"name":"2023-081W","line1":"1 56866U 23081W   26150.16130619  .00009795  00000+0  39756-3 0  9998","line2":"2 56866  97.2910 214.1645 0012347  79.4604 280.8024 15.24729112165281","category":"Other"},{"name":"LEMUR-2-HUBBLE-5","line1":"1 64840U 25135BT  26150.14225705  .00002348  00000+0  22513-3 0  9990","line2":"2 64840  97.7699 264.8743 0006535  50.5295 309.6502 14.94075275 51218","category":"Other"},{"name":"CONNECTA IOT-2","line1":"1 60522U 24149BG  26149.99132318  .00006082  00000+0  25536-3 0  9992","line2":"2 60522  97.3847 228.4148 0007296  41.3728 318.8061 15.23800952 99126","category":"Other"},{"name":"BUCCANEER MM","line1":"1 63245U 25052AM  26150.22464303  .00004120  00000+0  38617-3 0  9996","line2":"2 63245  97.6891  41.6015 0002493 278.0860  82.0077 14.94563269 65912","category":"Other"},{"name":"SITRO-AIS 9 (SHCHUKIN)","line1":"1 57201U 23091AM  26150.12087604  .00026439  00000+0  72142-3 0  9994","line2":"2 57201  97.5091 219.9847 0008266 133.3534 226.8400 15.37383346161971","category":"Other"},{"name":"ICEYE-X36","line1":"1 59103U 24043F   26150.18788779  .00005773  00000+0  39267-3 0  9991","line2":"2 59103  97.8349 287.9461 0006401  34.6045 325.5597 15.06714555122437","category":"Other"},{"name":"RISING 2","line1":"1 39769U 14029D   26150.18140733  .00008176  00000+0  69101-3 0  9992","line2":"2 39769  97.6523 219.0331 0003026  17.5171 342.6156 14.98329391650850","category":"Other"},{"name":"GARAI-A","line1":"1 62635U 25009AC  26150.17922865  .00008672  00000+0  41699-3 0  9996","line2":"2 62635  97.4008 230.3278 0003532  62.4041 297.7552 15.19035080 76043","category":"Other"},{"name":"EUCROPIS","line1":"1 43807U 18099BB  26150.09987519  .00011446  00000+0  52964-3 0  9995","line2":"2 43807  97.4234 206.1452 0005370  20.3679 339.7769 15.20282452409711","category":"Other"},{"name":"COLIBRI-S (RS67S)","line1":"1 61746U 24199M   26150.08364785  .00027313  00000+0  54314-3 0  9999","line2":"2 61746  97.3021  23.7820 0007868   0.2090 359.9162 15.46889839134611","category":"Other"},{"name":"MEGSAT-1","line1":"1 26546U 00057B   26105.16377814  .00001366  00000+0  10668-3 0  9995","line2":"2 26546  64.5492 271.0111 0039721 290.6230  69.0628 15.05135494388177","category":"Other"},{"name":"LUR-1","line1":"1 60506U 24149AQ  26150.19264789  .00009725  00000+0  33891-3 0  9996","line2":"2 60506  97.3743 229.1543 0004461  30.7531 329.3970 15.29844167 99224","category":"Other"},{"name":"ETV-A1","line1":"1 51060U 22002CE  26150.15060264  .00014942  00000+0  37278-3 0  9995","line2":"2 51060  97.2891 216.5120 0006347  62.5971 297.5921 15.40267070243069","category":"Other"},{"name":"HJ-2E","line1":"1 54035U 22132A   26150.20716344  .00011247  00000+0  49177-3 0  9993","line2":"2 54035  97.3794 154.9119 0022451  74.6392 285.7323 15.22012430201680","category":"Other"},{"name":"HINCUBE","line1":"1 39445U 13066AF  26104.31343802  .00004526  00000+0  29897-3 0  9992","line2":"2 39445  97.7924  71.9395 0035449  69.1903 291.3116 15.07420951669909","category":"Other"},{"name":"CURIUM ONE","line1":"1 60242U 24128H   26149.92203511  .00012592  00000+0  72132-3 0  9992","line2":"2 60242  61.9793 270.4527 0042363 127.1889 233.3085 15.12206607103695","category":"Other"},{"name":"UWE-3","line1":"1 39446U 13066AG  26149.83368301  .00007081  00000+0  60721-3 0  9990","line2":"2 39446  97.8697 105.7872 0049957  23.2472 337.0993 14.96857379674839","category":"Other"},{"name":"ROBUSTA-3A (MEDITERRAN*)","line1":"1 60243U 24128J   26149.61212077  .00011721  00000+0  68732-3 0  9990","line2":"2 60243  61.9870 273.9187 0043805 124.6534 235.8703 15.11367457103619","category":"Other"},{"name":"PRISMA","line1":"1 44072U 19015A   26150.20137609  .00000624  00000+0  82031-4 0  9994","line2":"2 44072  97.8651 225.2410 0001454  91.3207 268.8173 14.83660362389382","category":"Other"},{"name":"NORSAT-TD","line1":"1 56194U 23054S   23362.43217605  .00015486  00000+0  56442-3 0  9990","line2":"2 56194  97.3844 254.9653 0011446  57.1370 303.0970 15.28207509 39783","category":"Other"},{"name":"NAVSTAR 64 (USA 206)","line1":"1 35752U 09043A   26149.68863559 -.00000096  00000+0  00000+0 0  9994","line2":"2 35752  56.1989  28.1782 0053593  82.4401 287.9880  2.00555409122999","category":"GPS"},{"name":"WORLDVIEW-2 (WV-2)","line1":"1 35946U 09055A   26150.14099983  .00000031  00000+0  24672-4 0  9991","line2":"2 35946  98.4739 223.8389 0003093 274.0722  86.0111 14.37938717873053","category":"Other"},{"name":"GPS BIIF-3","line1":"1 38833U 12053A   26149.86927280  .00000058  00000+0  00000+0 0  9991","line2":"2 38833  53.5825 144.3496 0179329  65.5041 296.3608  2.00567243 99076","category":"GPS"},{"name":"IRIDIUM 113","line1":"1 42803U 17039A   26149.96101005  .00000082  00000+0  22065-4 0  9999","line2":"2 42803  86.3962 329.8006 0002336  91.0597 269.0867 14.34218208468577","category":"Other"},{"name":"COSMOS 2529 [GLONASS-M]","line1":"1 43687U 18086A   26145.18750413  .00000047  00000+0  00000+0 0  9997","line2":"2 43687  64.2931 193.3710 0011483 256.0033 103.9404  2.13102011 58796","category":"GPS"},{"name":"RADFXSAT (FOX-1B)","line1":"1 43017U 17073E   26149.61868316  .00012445  00000+0  54221-3 0  9996","line2":"2 43017  97.4739  17.2170 0152585  33.3983 327.6759 15.12348750462589","category":"Other"},{"name":"NAVSTAR 81 (USA 319)","line1":"1 48859U 21054A   26137.34480045 -.00000068  00000+0  00000+0 0  9996","line2":"2 48859  55.1880 333.6992 0024562 229.1334 308.8673  2.00570737 36130","category":"GPS"},{"name":"COSMOS 2428","line1":"1 31792U 07029A   26150.09074014 -.00000195  00000+0 -79008-4 0  9993","line2":"2 31792  70.9390  32.4736 0007435 169.6187 190.5089 14.12932944975590","category":"Other"},{"name":"SAUDISAT 1C (SO-50)","line1":"1 27607U 02058C   26150.08318950  .00001204  00000+0  15896-3 0  9993","line2":"2 27607  64.5508 184.9974 0075565 265.7847  93.4621 14.83003638261775","category":"Other"},{"name":"XINGYUN-2 02","line1":"1 45603U 20028B   26150.18008988  .00001391  00000+0  85964-4 0  9995","line2":"2 45603  97.5063 156.4893 0010321 342.9275  17.1606 15.11452221332110","category":"Other"},{"name":"RS-44 & BREEZE-KM R/B","line1":"1 44909U 19096E   26150.02340725  .00000036  00000+0  10006-3 0  9996","line2":"2 44909  82.5222 351.7776 0217340 186.5784 173.2455 12.79748520300028","category":"Other"},{"name":"INTELSAT 5 (IS-5)","line1":"1 24916U 97046A   24232.19273569 -.00000188  00000+0  00000+0 0  9999","line2":"2 24916   8.9351  54.9504 0004961 144.5563 196.1897  0.99038769 98914","category":"Other"},{"name":"STARLINK-1008","line1":"1 44714U 19074B   26150.05105779  .00075587  00000+0  14339-2 0  9992","line2":"2 44714  53.1510 155.4115 0003028  53.1447 306.9839 15.47662357361404","category":"Starlink"},{"name":"GPS BIIF-7","line1":"1 40105U 14045A   26150.10405316 -.00000044  00000+0  00000+0 0  9995","line2":"2 40105  55.3420  89.1851 0032577 118.5050 241.7880  2.00557296 85714","category":"GPS"},{"name":"IRIDIUM 134","line1":"1 43075U 17083F   26149.91661176  .00000051  00000+0  11099-4 0  9996","line2":"2 43075  86.3959 329.7083 0002138  88.0154 272.1287 14.34217063441484","category":"Other"},{"name":"GPS BIIR-13","line1":"1 28474U 04045A   26149.35396546 -.00000094  00000+0  00000+0 0  9993","line2":"2 28474  55.1476 325.6543 0169827 315.9360  43.9902  2.00555194158050","category":"GPS"},{"name":"GSAT0101 (GALILEO-PFM)","line1":"1 37846U 11060A   26147.90456248 -.00000090  00000+0  00000+0 0  9992","line2":"2 37846  57.0021 342.3106 0003502  46.6444 313.4060  1.70475852 90771","category":"GPS"},{"name":"STRIX-3","line1":"1 59224U 24047A   26150.19721323  .00011294  00000+0  54043-3 0  9996","line2":"2 59224  97.6614 125.6127 0015063 120.7730 239.4989 15.19045857122011","category":"Other"},{"name":"INTELSAT 19 (IS-19)","line1":"1 38356U 12030A   26150.10816558 -.00000045  00000+0  00000+0 0  9997","line2":"2 38356   0.0170 348.4927 0003256  83.9516  20.1288  1.00271150 50272","category":"Other"},{"name":"2021-050D","line1":"1 48843U 21050D   26150.20471345  .00005883  00000+0  25212-3 0  9993","line2":"2 48843  97.3346 226.6516 0004675 344.6503  15.4591 15.23128238276225","category":"Other"},{"name":"METOP-SGA1","line1":"1 65159U 25172A   26150.11953302  .00000078  00000+0  55612-4 0  9998","line2":"2 65159  98.6651 210.1760 0001022  83.9555 276.1739 14.21506476 41220","category":"Weather"},{"name":"EWS-G1 (GOES 13)","line1":"1 29155U 06018A   26105.84456892 -.00000067  00000+0  00000+0 0  9999","line2":"2 29155   4.3708  77.1567 0061646 275.3439 177.5008  0.98787424 42637","category":"Weather"}]}